{"fetched_at":"2026-07-08T07:04:01.103Z","source":"https://celestrak.org/NORAD/elements/gp.php?NAME=JILIN&FORMAT=JSON","constellation":"jilin-1-gaofen","records":[{"OBJECT_NAME":"JILIN-1 GAOFEN 3A","OBJECT_ID":"2019-032C","EPOCH":"2026-07-07T14:43:18.302592","CLASSIFICATION_TYPE":"U","MEAN_MOTION":15.33090513,"ECCENTRICITY":0.000474,"INCLINATION":44.9744,"RA_OF_ASC_NODE":244.4826,"ARG_OF_PERICENTER":49.6444,"MEAN_ANOMALY":310.4854,"EPHEMERIS_TYPE":0,"NORAD_CAT_ID":44312,"ELEMENT_SET_NO":999,"REV_AT_EPOCH":39097,"BSTAR":0.0002285,"MEAN_MOTION_DOT":0.00007143,"MEAN_MOTION_DDOT":0},{"OBJECT_NAME":"JILIN-1 GAOFEN 2A","OBJECT_ID":"2019-075A","EPOCH":"2026-07-07T17:43:24.584736","CLASSIFICATION_TYPE":"U","MEAN_MOTION":15.39875676,"ECCENTRICITY":0.0005917,"INCLINATION":97.4958,"RA_OF_ASC_NODE":273.016,"ARG_OF_PERICENTER":22.5637,"MEAN_ANOMALY":337.5867,"EPHEMERIS_TYPE":0,"NORAD_CAT_ID":44777,"ELEMENT_SET_NO":999,"REV_AT_EPOCH":36804,"BSTAR":0.00024227,"MEAN_MOTION_DOT":0.00009546,"MEAN_MOTION_DDOT":0},{"OBJECT_NAME":"JILIN-1 GAOFEN 2B","OBJECT_ID":"2019-086A","EPOCH":"2026-07-07T17:47:32.145792","CLASSIFICATION_TYPE":"U","MEAN_MOTION":15.2094444,"ECCENTRICITY":0.0012688,"INCLINATION":97.4871,"RA_OF_ASC_NODE":260.6054,"ARG_OF_PERICENTER":243.924,"MEAN_ANOMALY":116.069,"EPHEMERIS_TYPE":0,"NORAD_CAT_ID":44836,"ELEMENT_SET_NO":999,"REV_AT_EPOCH":36361,"BSTAR":0.00019545,"MEAN_MOTION_DOT":0.00004265,"MEAN_MOTION_DDOT":0},{"OBJECT_NAME":"JILIN-1 GAOFEN 3E","OBJECT_ID":"2020-065D","EPOCH":"2026-07-07T17:56:48.391584","CLASSIFICATION_TYPE":"U","MEAN_MOTION":15.66411592,"ECCENTRICITY":0.0011323,"INCLINATION":97.2219,"RA_OF_ASC_NODE":241.8673,"ARG_OF_PERICENTER":95.107,"MEAN_ANOMALY":265.1483,"EPHEMERIS_TYPE":0,"NORAD_CAT_ID":46457,"ELEMENT_SET_NO":999,"REV_AT_EPOCH":32297,"BSTAR":0.00051393,"MEAN_MOTION_DOT":0.00053606,"MEAN_MOTION_DDOT":0},{"OBJECT_NAME":"JILIN-1 GAOFEN 3F","OBJECT_ID":"2020-065E","EPOCH":"2026-07-07T17:55:47.018208","CLASSIFICATION_TYPE":"U","MEAN_MOTION":15.63266205,"ECCENTRICITY":0.0012769,"INCLINATION":97.2177,"RA_OF_ASC_NODE":239.0985,"ARG_OF_PERICENTER":82.4948,"MEAN_ANOMALY":277.7761,"EPHEMERIS_TYPE":0,"NORAD_CAT_ID":46458,"ELEMENT_SET_NO":999,"REV_AT_EPOCH":32291,"BSTAR":0.00048939,"MEAN_MOTION_DOT":0.00045058,"MEAN_MOTION_DDOT":0},{"OBJECT_NAME":"JILIN-1 GAOFEN 3G","OBJECT_ID":"2020-065F","EPOCH":"2026-07-07T18:09:11.268288","CLASSIFICATION_TYPE":"U","MEAN_MOTION":15.75543537,"ECCENTRICITY":0.0004756,"INCLINATION":97.2233,"RA_OF_ASC_NODE":246.2815,"ARG_OF_PERICENTER":317.6491,"MEAN_ANOMALY":42.4407,"EPHEMERIS_TYPE":0,"NORAD_CAT_ID":46459,"ELEMENT_SET_NO":999,"REV_AT_EPOCH":32317,"BSTAR":0.00058699,"MEAN_MOTION_DOT":0.00089763,"MEAN_MOTION_DDOT":0},{"OBJECT_NAME":"JILIN-1 GAOFEN 3H","OBJECT_ID":"2020-065G","EPOCH":"2026-07-07T18:41:10.239072","CLASSIFICATION_TYPE":"U","MEAN_MOTION":15.71205557,"ECCENTRICITY":0.0005284,"INCLINATION":97.2183,"RA_OF_ASC_NODE":242.4956,"ARG_OF_PERICENTER":230.0644,"MEAN_ANOMALY":130.0155,"EPHEMERIS_TYPE":0,"NORAD_CAT_ID":46460,"ELEMENT_SET_NO":999,"REV_AT_EPOCH":32311,"BSTAR":0.0005294,"MEAN_MOTION_DOT":0.0006712,"MEAN_MOTION_DDOT":0},{"OBJECT_NAME":"JILIN-1 GAOFEN 2D","OBJECT_ID":"2021-086A","EPOCH":"2026-07-07T18:13:03.515808","CLASSIFICATION_TYPE":"U","MEAN_MOTION":15.10825581,"ECCENTRICITY":0.0034407,"INCLINATION":97.6496,"RA_OF_ASC_NODE":311.4684,"ARG_OF_PERICENTER":75.1904,"MEAN_ANOMALY":285.3133,"EPHEMERIS_TYPE":0,"NORAD_CAT_ID":49256,"ELEMENT_SET_NO":999,"REV_AT_EPOCH":26382,"BSTAR":0.00022958,"MEAN_MOTION_DOT":0.00003802,"MEAN_MOTION_DDOT":0},{"OBJECT_NAME":"JILIN-1 GAOFEN 2F","OBJECT_ID":"2021-097A","EPOCH":"2026-07-07T17:45:55.505664","CLASSIFICATION_TYPE":"U","MEAN_MOTION":15.07913461,"ECCENTRICITY":0.0019437,"INCLINATION":97.6724,"RA_OF_ASC_NODE":314.8934,"ARG_OF_PERICENTER":153.3449,"MEAN_ANOMALY":206.8782,"EPHEMERIS_TYPE":0,"NORAD_CAT_ID":49338,"ELEMENT_SET_NO":999,"REV_AT_EPOCH":25941,"BSTAR":0.00018056,"MEAN_MOTION_DOT":0.00002718,"MEAN_MOTION_DDOT":0},{"OBJECT_NAME":"JILIN-1 GAOFEN 3D27","OBJECT_ID":"2022-048B","EPOCH":"2026-07-07T18:22:09.712416","CLASSIFICATION_TYPE":"U","MEAN_MOTION":15.81053565,"ECCENTRICITY":0.000437,"INCLINATION":97.5719,"RA_OF_ASC_NODE":304.6531,"ARG_OF_PERICENTER":263.4759,"MEAN_ANOMALY":96.6011,"EPHEMERIS_TYPE":0,"NORAD_CAT_ID":52444,"ELEMENT_SET_NO":999,"REV_AT_EPOCH":23272,"BSTAR":0.00062444,"MEAN_MOTION_DOT":0.00122551,"MEAN_MOTION_DDOT":0},{"OBJECT_NAME":"JILIN-1 GAOFEN 3D28","OBJECT_ID":"2022-048C","EPOCH":"2026-07-07T18:44:38.196960","CLASSIFICATION_TYPE":"U","MEAN_MOTION":15.85424228,"ECCENTRICITY":0.0003902,"INCLINATION":97.5647,"RA_OF_ASC_NODE":304.9219,"ARG_OF_PERICENTER":254.8039,"MEAN_ANOMALY":105.28,"EPHEMERIS_TYPE":0,"NORAD_CAT_ID":52445,"ELEMENT_SET_NO":999,"REV_AT_EPOCH":23278,"BSTAR":0.00069886,"MEAN_MOTION_DOT":0.0016918,"MEAN_MOTION_DDOT":0},{"OBJECT_NAME":"JILIN-1 GAOFEN 3D29","OBJECT_ID":"2022-048D","EPOCH":"2026-07-07T18:01:47.862624","CLASSIFICATION_TYPE":"U","MEAN_MOTION":15.81244358,"ECCENTRICITY":0.0003821,"INCLINATION":97.5722,"RA_OF_ASC_NODE":305.0007,"ARG_OF_PERICENTER":241.0624,"MEAN_ANOMALY":119.026,"EPHEMERIS_TYPE":0,"NORAD_CAT_ID":52446,"ELEMENT_SET_NO":999,"REV_AT_EPOCH":23274,"BSTAR":0.00064909,"MEAN_MOTION_DOT":0.00128585,"MEAN_MOTION_DDOT":0},{"OBJECT_NAME":"JILIN-1 GAOFEN 3D31","OBJECT_ID":"2022-048F","EPOCH":"2026-07-07T18:18:21.563712","CLASSIFICATION_TYPE":"U","MEAN_MOTION":15.9023996,"ECCENTRICITY":0.0004825,"INCLINATION":97.5708,"RA_OF_ASC_NODE":306.2459,"ARG_OF_PERICENTER":247.5165,"MEAN_ANOMALY":112.5597,"EPHEMERIS_TYPE":0,"NORAD_CAT_ID":52448,"ELEMENT_SET_NO":999,"REV_AT_EPOCH":23284,"BSTAR":0.00072236,"MEAN_MOTION_DOT":0.00216919,"MEAN_MOTION_DDOT":0.000019323},{"OBJECT_NAME":"JILIN-1 GAOFEN 03D09","OBJECT_ID":"2022-098B","EPOCH":"2026-07-07T21:21:14.520960","CLASSIFICATION_TYPE":"U","MEAN_MOTION":15.69369079,"ECCENTRICITY":0.000287,"INCLINATION":97.5611,"RA_OF_ASC_NODE":320.1584,"ARG_OF_PERICENTER":258.3184,"MEAN_ANOMALY":101.7755,"EPHEMERIS_TYPE":0,"NORAD_CAT_ID":53445,"ELEMENT_SET_NO":999,"REV_AT_EPOCH":21787,"BSTAR":0.00049925,"MEAN_MOTION_DOT":0.00058561,"MEAN_MOTION_DDOT":0},{"OBJECT_NAME":"JILIN-1 GAOFEN 03D43","OBJECT_ID":"2022-098E","EPOCH":"2026-07-07T21:11:06.923328","CLASSIFICATION_TYPE":"U","MEAN_MOTION":15.72929044,"ECCENTRICITY":0.0003176,"INCLINATION":97.5597,"RA_OF_ASC_NODE":321.2701,"ARG_OF_PERICENTER":249.6413,"MEAN_ANOMALY":110.4509,"EPHEMERIS_TYPE":0,"NORAD_CAT_ID":53448,"ELEMENT_SET_NO":999,"REV_AT_EPOCH":21794,"BSTAR":0.0004994,"MEAN_MOTION_DOT":0.00068046,"MEAN_MOTION_DDOT":0},{"OBJECT_NAME":"JILIN-1 GAOFEN 03D08","OBJECT_ID":"2022-155A","EPOCH":"2026-07-07T20:56:17.455200","CLASSIFICATION_TYPE":"U","MEAN_MOTION":15.66855274,"ECCENTRICITY":0.0003856,"INCLINATION":97.6226,"RA_OF_ASC_NODE":335.9607,"ARG_OF_PERICENTER":254.3817,"MEAN_ANOMALY":105.7017,"EPHEMERIS_TYPE":0,"NORAD_CAT_ID":54251,"ELEMENT_SET_NO":999,"REV_AT_EPOCH":20305,"BSTAR":0.00042308,"MEAN_MOTION_DOT":0.00044719,"MEAN_MOTION_DDOT":0}]}
