JILIN-1 GAOFEN 3A       
1 44312U 19032C   26188.61340628  .00007143  00000+0  22850-3 0  9998
2 44312  44.9744 244.4826 0004740  49.6444 310.4854 15.33090513390977
JILIN-1 GAOFEN 2A       
1 44777U 19075A   26188.73847899  .00009546  00000+0  24227-3 0  9994
2 44777  97.4958 273.0160 0005917  22.5637 337.5867 15.39875676368046
JILIN-1 GAOFEN 2B       
1 44836U 19086A   26188.74134428  .00004265  00000+0  19545-3 0  9990
2 44836  97.4871 260.6054 0012688 243.9240 116.0690 15.20944440363610
JILIN-1 GAOFEN 3E       
1 46457U 20065D   26188.74778231  .00053606  00000+0  51393-3 0  9996
2 46457  97.2219 241.8673 0011323  95.1070 265.1483 15.66411592322973
JILIN-1 GAOFEN 3F       
1 46458U 20065E   26188.74707197  .00045058  00000+0  48939-3 0  9994
2 46458  97.2177 239.0985 0012769  82.4948 277.7761 15.63266205322918
JILIN-1 GAOFEN 3G       
1 46459U 20065F   26188.75638042  .00089763  00000+0  58699-3 0  9993
2 46459  97.2233 246.2815 0004756 317.6491  42.4407 15.75543537323179
JILIN-1 GAOFEN 3H       
1 46460U 20065G   26188.77859073  .00067120  00000+0  52940-3 0  9992
2 46460  97.2183 242.4956 0005284 230.0644 130.0155 15.71205557323115
JILIN-1 GAOFEN 2D       
1 49256U 21086A   26188.75906847  .00003802  00000+0  22958-3 0  9995
2 49256  97.6496 311.4684 0034407  75.1904 285.3133 15.10825581263822
JILIN-1 GAOFEN 2F       
1 49338U 21097A   26188.74022576  .00002718  00000+0  18056-3 0  9994
2 49338  97.6724 314.8934 0019437 153.3449 206.8782 15.07913461259410
JILIN-1 GAOFEN 3D27     
1 52444U 22048B   26188.76539019  .00122551  00000+0  62444-3 0  9998
2 52444  97.5719 304.6531 0004370 263.4759  96.6011 15.81053565232729
JILIN-1 GAOFEN 3D28     
1 52445U 22048C   26188.78099765  .00169180  00000+0  69886-3 0  9996
2 52445  97.5647 304.9219 0003902 254.8039 105.2800 15.85424228232782
JILIN-1 GAOFEN 3D29     
1 52446U 22048D   26188.75124841  .00128585  00000+0  64909-3 0  9993
2 52446  97.5722 305.0007 0003821 241.0624 119.0260 15.81244358232741
JILIN-1 GAOFEN 3D31     
1 52448U 22048F   26188.76274958  .00216919  19323-4  72236-3 0  9995
2 52448  97.5708 306.2459 0004825 247.5165 112.5597 15.90239960232842
JILIN-1 GAOFEN 03D09    
1 53445U 22098B   26188.88975140  .00058561  00000+0  49925-3 0  9995
2 53445  97.5611 320.1584 0002870 258.3184 101.7755 15.69369079217879
JILIN-1 GAOFEN 03D43    
1 53448U 22098E   26188.88271902  .00068046  00000+0  49940-3 0  9999
2 53448  97.5597 321.2701 0003176 249.6413 110.4509 15.72929044217946
JILIN-1 GAOFEN 03D08    
1 54251U 22155A   26188.87242425  .00044719  00000+0  42308-3 0  9995
2 54251  97.6226 335.9607 0003856 254.3817 105.7017 15.66855274203056
